{
  "type": "FeatureCollection",
  "features": [
    {
      "type": "Feature",
      "properties": {
        "norad_id": 33412,
        "name": "COSMO-SKYMED 3",
        "group": "resource",
        "lat": -3.3976673881435797,
        "lon": 24.532303169204823,
        "alt_km": 544.4172003497197,
        "timestamp": "2025-12-20T11:30:28.027780+00:00",
        "meta_object_name": "COSMO-SKYMED 3",
        "meta_object_id": "2008-054A",
        "meta_epoch": "2025-12-20T04:18:57.981600",
        "meta_mean_motion": 15.05418996,
        "meta_eccentricity": 0.0016849,
        "meta_inclination": 97.8466,
        "meta_ra_of_asc_node": 204.6968,
        "meta_arg_of_pericenter": 146.9595,
        "meta_mean_anomaly": 213.2687,
        "meta_ephemeris_type": 0,
        "meta_classification_type": "U",
        "meta_norad_cat_id": 33412,
        "meta_element_set_no": 999,
        "meta_rev_at_epoch": 92999,
        "meta_bstar": 0.0001744,
        "meta_mean_motion_dot": 2.444e-05,
        "meta_mean_motion_ddot": 0,
        "tle_line1": "1 33412U 08054A   25354.17983775  .00002444  00000+0  17440-3 0  9998",
        "tle_line2": "2 33412  97.8466 204.6968 0016849 146.9595 213.2687 15.05418996929992"
      },
      "geometry": {
        "type": "Point",
        "coordinates": [
          24.532303169204823,
          -3.3976673881435797
        ]
      }
    },
    {
      "type": "Feature",
      "properties": {
        "norad_id": 33446,
        "name": "YAOGAN-4",
        "group": "resource",
        "lat": -71.2078875236502,
        "lon": 80.3563712471404,
        "alt_km": 621.4066369315306,
        "timestamp": "2025-12-20T11:30:28.027790+00:00",
        "meta_object_name": "YAOGAN-4",
        "meta_object_id": "2008-061A",
        "meta_epoch": "2025-12-20T02:16:16.821696",
        "meta_mean_motion": 14.82701971,
        "meta_eccentricity": 0.0013132,
        "meta_inclination": 97.9192,
        "meta_ra_of_asc_node": 284.1219,
        "meta_arg_of_pericenter": 297.4336,
        "meta_mean_anomaly": 62.5541,
        "meta_ephemeris_type": 0,
        "meta_classification_type": "U",
        "meta_norad_cat_id": 33446,
        "meta_element_set_no": 999,
        "meta_rev_at_epoch": 91912,
        "meta_bstar": 0.0001179,
        "meta_mean_motion_dot": 8.99e-06,
        "meta_mean_motion_ddot": 0,
        "tle_line1": "1 33446U 08061A   25354.09463914  .00000899  00000+0  11790-3 0  9996",
        "tle_line2": "2 33446  97.9192 284.1219 0013132 297.4336  62.5541 14.82701971919125"
      },
      "geometry": {
        "type": "Point",
        "coordinates": [
          80.3563712471404,
          -71.2078875236502
        ]
      }
    },
    {
      "type": "Feature",
      "properties": {
        "norad_id": 33492,
        "name": "GOSAT (IBUKI)",
        "group": "resource",
        "lat": -62.47567876874526,
        "lon": -92.83866585298182,
        "alt_km": 676.6834740465847,
        "timestamp": "2025-12-20T11:30:28.027801+00:00",
        "meta_object_name": "GOSAT (IBUKI)",
        "meta_object_id": "2009-002A",
        "meta_epoch": "2025-12-20T03:51:21.295296",
        "meta_mean_motion": 14.67538618,
        "meta_eccentricity": 9.97e-05,
        "meta_inclination": 98.0771,
        "meta_ra_of_asc_node": 102.6608,
        "meta_arg_of_pericenter": 101.0453,
        "meta_mean_anomaly": 259.0864,
        "meta_ephemeris_type": 0,
        "meta_classification_type": "U",
        "meta_norad_cat_id": 33492,
        "meta_element_set_no": 999,
        "meta_rev_at_epoch": 90520,
        "meta_bstar": 0.00011013,
        "meta_mean_motion_dot": 5.76e-06,
        "meta_mean_motion_ddot": 0,
        "tle_line1": "1 33492U 09002A   25354.16066314  .00000576  00000+0  11013-3 0  9994",
        "tle_line2": "2 33492  98.0771 102.6608 0000997 101.0453 259.0864 14.67538618905206"
      },
      "geometry": {
        "type": "Point",
        "coordinates": [
          -92.83866585298182,
          -62.47567876874526
        ]
      }
    },
    {
      "type": "Feature",
      "properties": {
        "norad_id": 35681,
        "name": "DEIMOS-1",
        "group": "resource",
        "lat": 12.30793659452377,
        "lon": -23.583411983255676,
        "alt_km": 646.8844669262189,
        "timestamp": "2025-12-20T11:30:28.027812+00:00",
        "meta_object_name": "DEIMOS-1",
        "meta_object_id": "2009-041A",
        "meta_epoch": "2025-12-20T04:14:19.017600",
        "meta_mean_motion": 14.74963441,
        "meta_eccentricity": 0.00026,
        "meta_inclination": 97.7143,
        "meta_ra_of_asc_node": 154.4332,
        "meta_arg_of_pericenter": 67.8548,
        "meta_mean_anomaly": 292.2937,
        "meta_ephemeris_type": 0,
        "meta_classification_type": "U",
        "meta_norad_cat_id": 35681,
        "meta_element_set_no": 999,
        "meta_rev_at_epoch": 88049,
        "meta_bstar": 8.5242e-05,
        "meta_mean_motion_dot": 5.26e-06,
        "meta_mean_motion_ddot": 0,
        "tle_line1": "1 35681U 09041A   25354.17660900  .00000526  00000+0  85242-4 0  9992",
        "tle_line2": "2 35681  97.7143 154.4332 0002600  67.8548 292.2937 14.74963441880490"
      },
      "geometry": {
        "type": "Point",
        "coordinates": [
          -23.583411983255676,
          12.30793659452377
        ]
      }
    },
    {
      "type": "Feature",
      "properties": {
        "norad_id": 35682,
        "name": "DUBAISAT-1",
        "group": "resource",
        "lat": 81.49474784140119,
        "lon": 14.766392138309229,
        "alt_km": 645.2175164239325,
        "timestamp": "2025-12-20T11:30:28.027823+00:00",
        "meta_object_name": "DUBAISAT-1",
        "meta_object_id": "2009-041B",
        "meta_epoch": "2025-12-19T22:03:33.976800",
        "meta_mean_motion": 14.74622186,
        "meta_eccentricity": 0.000927,
        "meta_inclination": 97.9798,
        "meta_ra_of_asc_node": 124.4935,
        "meta_arg_of_pericenter": 288.7349,
        "meta_mean_anomaly": 71.2853,
        "meta_ephemeris_type": 0,
        "meta_classification_type": "U",
        "meta_norad_cat_id": 35682,
        "meta_element_set_no": 999,
        "meta_rev_at_epoch": 87867,
        "meta_bstar": 0.00014158,
        "meta_mean_motion_dot": 8.94e-06,
        "meta_mean_motion_ddot": 0,
        "tle_line1": "1 35682U 09041B   25353.91914325  .00000894  00000+0  14158-3 0  9992",
        "tle_line2": "2 35682  97.9798 124.4935 0009270 288.7349  71.2853 14.74622186878675"
      },
      "geometry": {
        "type": "Point",
        "coordinates": [
          14.766392138309229,
          81.49474784140119
        ]
      }
    },
    {
      "type": "Feature",
      "properties": {
        "norad_id": 35931,
        "name": "OCEANSAT-2",
        "group": "resource",
        "lat": -16.115907854469825,
        "lon": -3.310998299653862,
        "alt_km": 891.0253470411681,
        "timestamp": "2025-12-20T11:30:28.027834+00:00",
        "meta_object_name": "OCEANSAT-2",
        "meta_object_id": "2009-051A",
        "meta_epoch": "2025-12-20T04:43:20.591040",
        "meta_mean_motion": 13.99623133,
        "meta_eccentricity": 0.0016026,
        "meta_inclination": 98.2217,
        "meta_ra_of_asc_node": 354.0408,
        "meta_arg_of_pericenter": 25.5184,
        "meta_mean_anomaly": 334.677,
        "meta_ephemeris_type": 0,
        "meta_classification_type": "U",
        "meta_norad_cat_id": 35931,
        "meta_element_set_no": 999,
        "meta_rev_at_epoch": 85429,
        "meta_bstar": -6.6368e-05,
        "meta_mean_motion_dot": -1.35e-06,
        "meta_mean_motion_ddot": 0,
        "tle_line1": "1 35931U 09051A   25354.19676610 -.00000135  00000+0 -66368-4 0  9994",
        "tle_line2": "2 35931  98.2217 354.0408 0016026  25.5184 334.6770 13.99623133854294"
      },
      "geometry": {
        "type": "Point",
        "coordinates": [
          -3.310998299653862,
          -16.115907854469825
        ]
      }
    },
    {
      "type": "Feature",
      "properties": {
        "norad_id": 35946,
        "name": "WORLDVIEW-2 (WV-2)",
        "group": "resource",
        "lat": 80.46059174178562,
        "lon": 2.8890130138770953,
        "alt_km": 755.6709934674145,
        "timestamp": "2025-12-20T11:30:28.027844+00:00",
        "meta_object_name": "WORLDVIEW-2 (WV-2)",
        "meta_object_id": "2009-055A",
        "meta_epoch": "2025-12-20T04:25:49.234368",
        "meta_mean_motion": 14.37726999,
        "meta_eccentricity": 0.0004935,
        "meta_inclination": 98.478,
        "meta_ra_of_asc_node": 65.167,
        "meta_arg_of_pericenter": 52.4511,
        "meta_mean_anomaly": 307.7124,
        "meta_ephemeris_type": 0,
        "meta_classification_type": "U",
        "meta_norad_cat_id": 35946,
        "meta_element_set_no": 999,
        "meta_rev_at_epoch": 84992,
        "meta_bstar": 5.1872e-05,
        "meta_mean_motion_dot": 1.12e-06,
        "meta_mean_motion_ddot": 0,
        "tle_line1": "1 35946U 09055A   25354.18459762  .00000112  00000+0  51872-4 0  9997",
        "tle_line2": "2 35946  98.4780  65.1670 0004935  52.4511 307.7124 14.37726999849922"
      },
      "geometry": {
        "type": "Point",
        "coordinates": [
          2.8890130138770953,
          80.46059174178562
        ]
      }
    }
  ]
}